{"type": "FeatureCollection", "features": [ {"type": "Feature", "properties": {"norad_id": 34376, "name": "IRIDIUM 33 DEB", "group": "iridium-33-debris", "lat": -30.352644137100924, "lon": -1.5701853856918428, "alt_km": 708.4992935607142, "timestamp": "2025-12-25T22:42:17.398335+00:00", "meta": {"OBJECT_NAME": "IRIDIUM 33 DEB", "OBJECT_ID": "1997-051FU", "EPOCH": "2025-12-25T17:55:07.569696", "MEAN_MOTION": 14.62744927, "ECCENTRICITY": 0.0028572, "INCLINATION": 86.2988, "RA_OF_ASC_NODE": 0.6918, "ARG_OF_PERICENTER": 124.2341, "MEAN_ANOMALY": 236.1583, "EPHEMERIS_TYPE": 0, "CLASSIFICATION_TYPE": "U", "NORAD_CAT_ID": 34376, "ELEMENT_SET_NO": 999, "REV_AT_EPOCH": 88197, "BSTAR": 0.0015827, "MEAN_MOTION_DOT": 8.136e-05, "MEAN_MOTION_DDOT": 0}, "tle": {"line1": "1 34376U 97051FU  25359.74661539  .00008136  00000+0  15827-2 0  9992", "line2": "2 34376  86.2988   0.6918 0028572 124.2341 236.1583 14.62744927881978"}}, "geometry": {"type": "Point", "coordinates": [-1.5701853856918428, -30.352644137100924]}}, {"type": "Feature", "properties": {"norad_id": 34486, "name": "IRIDIUM 33 DEB", "group": "iridium-33-debris", "lat": -26.775887374434557, "lon": 4.101150339995968, "alt_km": 585.7655869044092, "timestamp": "2025-12-25T22:42:17.398353+00:00", "meta": {"OBJECT_NAME": "IRIDIUM 33 DEB", "OBJECT_ID": "1997-051GB", "EPOCH": "2025-12-25T12:07:55.559424", "MEAN_MOTION": 14.96371429, "ECCENTRICITY": 0.0013919, "INCLINATION": 86.3932, "RA_OF_ASC_NODE": 6.1286, "ARG_OF_PERICENTER": 75.9543, "MEAN_ANOMALY": 45.9427, "EPHEMERIS_TYPE": 0, "CLASSIFICATION_TYPE": "U", "NORAD_CAT_ID": 34486, "ELEMENT_SET_NO": 999, "REV_AT_EPOCH": 89177, "BSTAR": 0.002266, "MEAN_MOTION_DOT": 0.00025787, "MEAN_MOTION_DDOT": 0}, "tle": {"line1": "1 34486U 97051GB  25359.50550416  .00025787  00000+0  22660-2 0  9993", "line2": "2 34486  86.3932   6.1286 0013919  75.9543  45.9427 14.96371429891776"}}, "geometry": {"type": "Point", "coordinates": [4.101150339995968, -26.775887374434557]}}, {"type": "Feature", "properties": {"norad_id": 34487, "name": "IRIDIUM 33 DEB", "group": "iridium-33-debris", "lat": -1.1875854915333628, "lon": 6.614918919175792, "alt_km": 750.2424174923972, "timestamp": "2025-12-25T22:42:17.398363+00:00", "meta": {"OBJECT_NAME": "IRIDIUM 33 DEB", "OBJECT_ID": "1997-051GC", "EPOCH": "2025-12-25T01:19:57.963072", "MEAN_MOTION": 14.43231551, "ECCENTRICITY": 0.00332623, "INCLINATION": 86.3429, "RA_OF_ASC_NODE": 7.0742, "ARG_OF_PERICENTER": 90.1032, "MEAN_ANOMALY": 325.4273, "EPHEMERIS_TYPE": 0, "CLASSIFICATION_TYPE": "U", "NORAD_CAT_ID": 34487, "ELEMENT_SET_NO": 999, "REV_AT_EPOCH": 88426, "BSTAR": 0.0001885437, "MEAN_MOTION_DOT": 6.59e-06, "MEAN_MOTION_DDOT": 0}, "tle": {"line1": "1 34487U 97051GC  25359.05553198  .00000659  00000+0  18854-3 0  9996", "line2": "2 34487  86.3429   7.0742 0033262  90.1032 325.4273 14.43231551884264"}}, "geometry": {"type": "Point", "coordinates": [6.614918919175792, -1.1875854915333628]}}, {"type": "Feature", "properties": {"norad_id": 34488, "name": "IRIDIUM 33 DEB", "group": "iridium-33-debris", "lat": 3.5692875855330795, "lon": 119.02710289966421, "alt_km": 475.55912137596533, "timestamp": "2025-12-25T22:42:17.398373+00:00", "meta": {"OBJECT_NAME": "IRIDIUM 33 DEB", "OBJECT_ID": "1997-051GD", "EPOCH": "2025-12-24T20:52:00.225120", "MEAN_MOTION": 15.32501741, "ECCENTRICITY": 0.0009278, "INCLINATION": 86.3252, "RA_OF_ASC_NODE": 299.7925, "ARG_OF_PERICENTER": 31.7639, "MEAN_ANOMALY": 328.4168, "EPHEMERIS_TYPE": 0, "CLASSIFICATION_TYPE": "U", "NORAD_CAT_ID": 34488, "ELEMENT_SET_NO": 999, "REV_AT_EPOCH": 89425, "BSTAR": 0.0047265, "MEAN_MOTION_DOT": 0.0015116, "MEAN_MOTION_DDOT": 0}, "tle": {"line1": "1 34488U 97051GD  25358.86944705  .00151160  00000+0  47265-2 0  9994", "line2": "2 34488  86.3252 299.7925 0009278  31.7639 328.4168 15.32501741894252"}}, "geometry": {"type": "Point", "coordinates": [119.02710289966421, 3.5692875855330795]}}, {"type": "Feature", "properties": {"norad_id": 34492, "name": "IRIDIUM 33 DEB", "group": "iridium-33-debris", "lat": -15.0158874523124, "lon": -31.658136099865764, "alt_km": 926.619433334331, "timestamp": "2025-12-25T22:42:17.398383+00:00", "meta": {"OBJECT_NAME": "IRIDIUM 33 DEB", "OBJECT_ID": "1997-051GH", "EPOCH": "2025-12-24T21:39:21.521088", "MEAN_MOTION": 14.25932668, "ECCENTRICITY": 0.0188786, "INCLINATION": 86.473, "RA_OF_ASC_NODE": 329.7114, "ARG_OF_PERICENTER": 198.6425, "MEAN_ANOMALY": 190.963, "EPHEMERIS_TYPE": 0, "CLASSIFICATION_TYPE": "U", "NORAD_CAT_ID": 34492, "ELEMENT_SET_NO": 999, "REV_AT_EPOCH": 85232, "BSTAR": 0.0029502, "MEAN_MOTION_DOT": 8.501e-05, "MEAN_MOTION_DDOT": 0}, "tle": {"line1": "1 34492U 97051GH  25358.90233242  .00008501  00000+0  29502-2 0  9995", "line2": "2 34492  86.4730 329.7114 0188786 198.6425 190.9630 14.25932668852326"}}, "geometry": {"type": "Point", "coordinates": [-31.658136099865764, -15.0158874523124]}}, {"type": "Feature", "properties": {"norad_id": 34497, "name": "IRIDIUM 33 DEB", "group": "iridium-33-debris", "lat": -60.12105245562109, "lon": 40.25214473655345, "alt_km": 751.4144758693083, "timestamp": "2025-12-25T22:42:17.398394+00:00", "meta": {"OBJECT_NAME": "IRIDIUM 33 DEB", "OBJECT_ID": "1997-051GN", "EPOCH": "2025-12-22T21:33:03.136608", "MEAN_MOTION": 14.27482363, "ECCENTRICITY": 0.00780484, "INCLINATION": 86.2769, "RA_OF_ASC_NODE": 48.0617, "ARG_OF_PERICENTER": 306.2683, "MEAN_ANOMALY": 179.2919, "EPHEMERIS_TYPE": 0, "CLASSIFICATION_TYPE": "U", "NORAD_CAT_ID": 34497, "ELEMENT_SET_NO": 999, "REV_AT_EPOCH": 87028, "BSTAR": 0.00056228088, "MEAN_MOTION_DOT": 1.443e-05, "MEAN_MOTION_DDOT": 0}, "tle": {"line1": "1 34497U 97051GN  25356.89795297  .00001443  00000+0  56228-3 0  9993", "line2": "2 34497  86.2769  48.0617 0078048 306.2683 179.2919 14.27482363870281"}}, "geometry": {"type": "Point", "coordinates": [40.25214473655345, -60.12105245562109]}}, {"type": "Feature", "properties": {"norad_id": 34508, "name": "IRIDIUM 33 DEB", "group": "iridium-33-debris", "lat": -79.99818978059973, "lon": -61.85882487929163, "alt_km": 801.2616329422472, "timestamp": "2025-12-25T22:42:17.398404+00:00", "meta": {"OBJECT_NAME": "IRIDIUM 33 DEB", "OBJECT_ID": "1997-051GZ", "EPOCH": "2025-12-25T16:29:37.440096", "MEAN_MOTION": 14.38522284, "ECCENTRICITY": 0.0066677, "INCLINATION": 86.3701, "RA_OF_ASC_NODE": 97.1541, "ARG_OF_PERICENTER": 131.4809, "MEAN_ANOMALY": 229.2141, "EPHEMERIS_TYPE": 0, "CLASSIFICATION_TYPE": "U", "NORAD_CAT_ID": 34508, "ELEMENT_SET_NO": 999, "REV_AT_EPOCH": 87495, "BSTAR": 0.0012254, "MEAN_MOTION_DOT": 3.862e-05, "MEAN_MOTION_DDOT": 0}, "tle": {"line1": "1 34508U 97051GZ  25359.68723889  .00003862  00000+0  12254-2 0  9991", "line2": "2 34508  86.3701  97.1541 0066677 131.4809 229.2141 14.38522284874955"}}, "geometry": {"type": "Point", "coordinates": [-61.85882487929163, -79.99818978059973]}}, {"type": "Feature", "properties": {"norad_id": 34521, "name": "IRIDIUM 33 DEB", "group": "iridium-33-debris", "lat": -2.0781177983687202, "lon": -155.13583203164754, "alt_km": 683.2553880006853, "timestamp": "2025-12-25T22:42:17.398414+00:00", "meta": {"OBJECT_NAME": "IRIDIUM 33 DEB", "OBJECT_ID": "1997-051HN", "EPOCH": "2025-12-24T19:37:11.782272", "MEAN_MOTION": 14.63462765, "ECCENTRICITY": 0.00031171, "INCLINATION": 86.3786, "RA_OF_ASC_NODE": 25.2294, "ARG_OF_PERICENTER": 167.2726, "MEAN_ANOMALY": 192.8565, "EPHEMERIS_TYPE": 0, "CLASSIFICATION_TYPE": "U", "NORAD_CAT_ID": 34521, "ELEMENT_SET_NO": 999, "REV_AT_EPOCH": 88649, "BSTAR": 0.00083071408, "MEAN_MOTION_DOT": 4.322e-05, "MEAN_MOTION_DDOT": 0}, "tle": {"line1": "1 34521U 97051HN  25358.81749748  .00004322  00000+0  83071-3 0  9990", "line2": "2 34521  86.3786  25.2294 0003117 167.2726 192.8565 14.63462765886497"}}, "geometry": {"type": "Point", "coordinates": [-155.13583203164754, -2.0781177983687202]}}, {"type": "Feature", "properties": {"norad_id": 34525, "name": "IRIDIUM 33 DEB", "group": "iridium-33-debris", "lat": 71.70467173135089, "lon": -149.85857797066413, "alt_km": 738.7891101000732, "timestamp": "2025-12-25T22:42:17.398425+00:00", "meta": {"OBJECT_NAME": "IRIDIUM 33 DEB", "OBJECT_ID": "1997-051HS", "EPOCH": "2025-12-25T14:35:26.808288", "MEAN_MOTION": 14.42935199, "ECCENTRICITY": 0.0006208, "INCLINATION": 86.3716, "RA_OF_ASC_NODE": 41.3505, "ARG_OF_PERICENTER": 65.3879, "MEAN_ANOMALY": 87.3835, "EPHEMERIS_TYPE": 0, "CLASSIFICATION_TYPE": "U", "NORAD_CAT_ID": 34525, "ELEMENT_SET_NO": 999, "REV_AT_EPOCH": 88273, "BSTAR": 0.0003487, "MEAN_MOTION_DOT": 1.185e-05, "MEAN_MOTION_DDOT": 0}, "tle": {"line1": "1 34525U 97051HS  25359.60794917  .00001185  00000+0  34870-3 0  9997", "line2": "2 34525  86.3716  41.3505 0006208  65.3879  87.3835 14.42935199882733"}}, "geometry": {"type": "Point", "coordinates": [-149.85857797066413, 71.70467173135089]}}, {"type": "Feature", "properties": {"norad_id": 34529, "name": "IRIDIUM 33 DEB", "group": "iridium-33-debris", "lat": -73.19025189181805, "lon": -138.06431431587305, "alt_km": 765.6326817847994, "timestamp": "2025-12-25T22:42:17.398435+00:00", "meta": {"OBJECT_NAME": "IRIDIUM 33 DEB", "OBJECT_ID": "1997-051HW", "EPOCH": "2025-12-25T13:11:48.680736", "MEAN_MOTION": 14.40626161, "ECCENTRICITY": 0.0006214, "INCLINATION": 86.3628, "RA_OF_ASC_NODE": 29.95, "ARG_OF_PERICENTER": 140.827, "MEAN_ANOMALY": 219.338, "EPHEMERIS_TYPE": 0, "CLASSIFICATION_TYPE": "U", "NORAD_CAT_ID": 34529, "ELEMENT_SET_NO": 999, "REV_AT_EPOCH": 88326, "BSTAR": 0.00012953, "MEAN_MOTION_DOT": 4.33e-06, "MEAN_MOTION_DDOT": 0}, "tle": {"line1": "1 34529U 97051HW  25359.54986899  .00000433  00000+0  12953-3 0  9999", "line2": "2 34529  86.3628  29.9500 0006214 140.8270 219.3380 14.40626161883262"}}, "geometry": {"type": "Point", "coordinates": [-138.06431431587305, -73.19025189181805]}}]}